NORAD_CAT_ID,OBJECT_NAME,OBJECT_TYPE,EPOCH,MEAN_MOTION,ECCENTRICITY,INCLINATION,RA_OF_ASC_NODE,ARG_OF_PERICENTER,MEAN_ANOMALY,BSTAR,MEAN_MOTION_DOT,MEAN_MOTION_DDOT,TLE_LINE0,TLE_LINE1,TLE_LINE2,SEMIMAJOR_AXIS,PERIOD,APOGEE,PERIGEE,DECAYED
52874.0,STARLINK-4210,PAYLOAD,2023-04-15 07:45:03,15.08843436,0.0001193,53.2176,89.8002,87.6034,272.5095,3.2965e-05,2.37e-06,0.0,0 STARLINK-4210,1 52874U 22062AW  23105.32295718  .00000237  00000-0  32965-4 0  9997,2 52874  53.2176  89.8002 0001193  87.6034 272.5095 15.08843436 46621,6917.87,95.437,540.56,538.91,0.0
52874.0,STARLINK-4210,PAYLOAD,2023-04-15 15:41:59,15.08843427,0.0001255,53.2178,88.3134,92.6207,267.4928,-2.8916e-05,-7.48e-06,0.0,0 STARLINK-4210,1 52874U 22062AW  23105.65415791 -.00000748  00000-0 -28916-4 0  9998,2 52874  53.2178  88.3134 0001255  92.6207 267.4928 15.08843427 46189,6917.87,95.437,540.603,538.867,0.0
52874.0,STARLINK-4210,PAYLOAD,2023-04-16 07:35:51,15.08831861,0.0001217,53.2179,85.34,91.7776,268.3355,3.0439e-06,-2.39e-06,0.0,0 STARLINK-4210,1 52874U 22062AW  23106.31656808 -.00000239  00000-0  30439-5 0  9996,2 52874  53.2179  85.3400 0001217  91.7776 268.3355 15.08831861 46286,6917.905,95.438,540.612,538.928,0.0
52874.0,STARLINK-4210,PAYLOAD,2023-04-16 15:32:46,15.08836073,0.0001333,53.2179,83.8523,88.1249,271.9895,2.6901e-05,1.4e-06,0.0,0 STARLINK-4210,1 52874U 22062AW  23106.64776587  .00000140  00000-0  26901-4 0  9997,2 52874  53.2179  83.8523 0001333  88.1249 271.9895 15.08836073 46334,6917.892,95.438,540.68,538.835,0.0
52874.0,STARLINK-4210,PAYLOAD,2023-04-17 07:26:37,15.08845183,0.0001293,53.2183,80.8776,87.9186,272.1955,2.0974e-05,4.6e-07,0.0,0 STARLINK-4210,1 52874U 22062AW  23107.31016180  .00000046  00000-0  20974-4 0  9997,2 52874  53.2183  80.8776 0001293  87.9186 272.1955 15.08845183 46925,6917.865,95.437,540.624,538.835,0.0
52874.0,STARLINK-4210,PAYLOAD,2023-04-17 15:23:34,15.08839957,0.0001213,53.2182,79.3902,85.2247,274.8884,-3.7088e-05,-8.78e-06,0.0,0 STARLINK-4210,1 52874U 22062AW  23107.64136637 -.00000878  00000-0 -37088-4 0  9992,2 52874  53.2182  79.3902 0001213  85.2247 274.8884 15.08839957 46976,6917.881,95.438,540.585,538.906,0.0
52874.0,STARLINK-4210,PAYLOAD,2023-04-18 07:17:25,15.08839621,0.0001096,53.2177,76.4175,102.3591,257.7524,2.6561e-05,1.35e-06,0.0,0 STARLINK-4210,1 52874U 22062AW  23108.30376708  .00000135  00000-0  26561-4 0  9999,2 52874  53.2177  76.4175 0001096 102.3591 257.7524 15.08839621 46588,6917.882,95.438,540.505,538.988,0.0
52874.0,STARLINK-4210,PAYLOAD,2023-04-18 15:14:21,15.08839796,0.000115,53.2177,74.9327,80.6377,279.4745,0.00010066,1.315e-05,0.0,0 STARLINK-4210,1 52874U 22062AW  23108.63496571  .00001315  00000-0  10066-3 0  9999,2 52874  53.2177  74.9327 0001150  80.6377 279.4745 15.08839796 46636,6917.881,95.438,540.542,538.95,0.0
52874.0,STARLINK-4210,PAYLOAD,2023-04-19 07:08:11,15.08851255,0.0001015,53.217,71.957,97.4884,262.6223,6.3989e-05,7.31e-06,0.0,0 STARLINK-4210,1 52874U 22062AW  23109.29735790  .00000731  00000-0  63989-4 0  9995,2 52874  53.2170  71.9570 0001015  97.4884 262.6223 15.08851255 47220,6917.846,95.437,540.413,539.009,0.0
52874.0,STARLINK-4210,PAYLOAD,2023-04-20 06:58:59,15.08843492,0.0001223,53.2185,67.4963,97.1807,262.9325,3.97e-05,3.44e-06,0.0,0 STARLINK-4210,1 52874U 22062AW  23110.29096344  .00000344  00000-0  39700-4 0  9996,2 52874  53.2185  67.4963 0001223  97.1807 262.9325 15.08843492 46886,6917.87,95.437,540.581,538.889,0.0
52874.0,STARLINK-4210,PAYLOAD,2023-04-21 13:11:19,15.08838927,0.000108,53.2184,61.8486,101.0271,259.0843,-8.1414e-05,-1.583e-05,0.0,0 STARLINK-4210,1 52874U 22062AW  23111.54953348 -.00001583  00000-0 -81414-4 0  9998,2 52874  53.2184  61.8486 0001080 101.0271 259.0843 15.08838927 47569,6917.884,95.438,540.496,539.002,0.0
52874.0,STARLINK-4210,PAYLOAD,2023-04-21 21:08:15,15.08838565,0.0001084,53.2186,60.3608,111.6293,248.4814,-1.2711e-07,-2.9e-06,0.0,0 STARLINK-4210,1 52874U 22062AW  23111.88073401 -.00000290  00000-0 -12711-6 0  9998,2 52874  53.2186  60.3608 0001084 111.6293 248.4814 15.08838565 47126,6917.885,95.438,540.5,539.0,0.0
52874.0,STARLINK-4210,PAYLOAD,2023-04-22 05:05:10,15.08849084,0.0001033,53.2183,58.8734,103.3398,256.771,8.8028e-05,1.114e-05,0.0,0 STARLINK-4210,1 52874U 22062AW  23112.21192313  .00001114  00000-0  88028-4 0  9996,2 52874  53.2183  58.8734 0001033 103.3398 256.7710 15.08849084 47173,6917.853,95.437,540.432,539.003,0.0
52874.0,STARLINK-4210,PAYLOAD,2023-04-23 06:31:21,15.0884063,0.0001146,53.2183,54.1165,87.2306,272.8817,9.4013e-05,1.209e-05,0.0,0 STARLINK-4210,1 52874U 22062AW  23113.27177199  .00001209  00000-0  94013-4 0  9994,2 52874  53.2183  54.1165 0001146  87.2306 272.8817 15.08840630 47821,6917.878,95.438,540.536,538.951,0.0
52874.0,STARLINK-4210,PAYLOAD,2023-04-24 04:46:43,15.08858749,0.0001193,53.22,49.9537,95.0385,265.0744,0.0001206,1.633e-05,0.0,0 STARLINK-4210,1 52874U 22062AW  23114.19911617  .00001633  00000-0  12060-3 0  9999,2 52874  53.2200  49.9537 0001193  95.0385 265.0744 15.08858749 47960,6917.823,95.436,540.513,538.863,0.0
52874.0,STARLINK-4210,PAYLOAD,2023-04-25 03:02:06,15.08861953,0.0001263,53.2193,45.7905,94.1567,265.957,9.9125e-05,1.291e-05,0.0,0 STARLINK-4210,1 52874U 22062AW  23115.12646355  .00001291  00000-0  99125-4 0  9995,2 52874  53.2193  45.7905 0001263  94.1567 265.9570 15.08861953 47613,6917.813,95.436,540.552,538.805,0.0
52874.0,STARLINK-4210,PAYLOAD,2023-04-26 01:17:34,15.08828566,0.0001291,53.22,41.6294,93.9839,266.1301,-0.00038387,-6.39e-05,0.0,0 STARLINK-4210,1 52874U 22062AW  23116.05386664 -.00006390  00000-0 -38387-3 0  9991,2 52874  53.2200  41.6294 0001291  93.9839 266.1301 15.08828566 48246,6917.915,95.438,540.673,538.887,0.0
52874.0,STARLINK-4210,PAYLOAD,2023-04-26 06:03:44,15.08821715,0.0001274,53.219,40.7369,97.9661,262.1476,-0.00041259,-6.845e-05,0.0,0 STARLINK-4210,1 52874U 22062AW  23116.25259323 -.00006845  00000-0 -41259-3 0  9991,2 52874  53.2190  40.7369 0001274  97.9661 262.1476 15.08821715 47781,6917.936,95.439,540.683,538.92,0.0
52874.0,STARLINK-4210,PAYLOAD,2023-04-26 23:32:57,15.08831379,0.0001059,53.2198,37.4688,83.134,276.9773,-0.00016196,-2.864e-05,0.0,0 STARLINK-4210,1 52874U 22062AW  23116.98122310 -.00002864  00000-0 -16196-3 0  9995,2 52874  53.2198  37.4688 0001059  83.1340 276.9773 15.08831379 48385,6917.907,95.438,540.504,539.039,0.0
52874.0,STARLINK-4210,PAYLOAD,2023-04-28 00:59:06,15.0885347,0.0001264,53.2195,32.7103,86.3277,273.786,0.00035318,5.339e-05,0.0,0 STARLINK-4210,1 52874U 22062AW  23118.04104259  .00005339  00000-0  35318-3 0  9991,2 52874  53.2195  32.7103 0001264  86.3277 273.7860 15.08853470 48540,6917.839,95.437,540.579,538.83,0.0
52874.0,STARLINK-4210,PAYLOAD,2023-04-28 18:28:21,15.08851073,0.000158,53.2197,29.4395,105.676,254.4407,-8.0794e-06,-4.17e-06,0.0,0 STARLINK-4210,1 52874U 22062AW  23118.76969749 -.00000417  00000-0 -80794-5 0  9997,2 52874  53.2197  29.4395 0001580 105.6760 254.4407 15.08851073 48653,6917.847,95.437,540.805,538.619,0.0
52874.0,STARLINK-4210,PAYLOAD,2023-04-29 02:25:17,15.08848774,0.0001334,53.2202,27.9534,114.7575,245.3556,-2.7007e-05,-7.18e-06,0.0,0 STARLINK-4210,1 52874U 22062AW  23119.10089652 -.00000718  00000-0 -27007-4 0  9993,2 52874  53.2202  27.9534 0001334 114.7575 245.3556 15.08848774 48210,6917.854,95.437,540.641,538.796,0.0
52874.0,STARLINK-4210,PAYLOAD,2023-04-29 18:19:09,15.08846326,0.0001261,53.2205,24.9816,105.7803,254.3329,-0.00018918,-3.298e-05,0.0,0 STARLINK-4210,1 52874U 22062AW  23119.76330322 -.00003298  00000-0 -18918-3 0  9994,2 52874  53.2205  24.9816 0001261 105.7803 254.3329 15.08846326 48800,6917.861,95.437,540.598,538.854,0.0
52874.0,STARLINK-4210,PAYLOAD,2023-04-30 02:16:04,15.08850814,0.0001232,53.2205,23.495,104.1369,255.976,-0.0001543,-2.743e-05,0.0,0 STARLINK-4210,1 52874U 22062AW  23120.09449747 -.00002743  00000-0 -15430-3 0  9994,2 52874  53.2205  23.4950 0001232 104.1369 255.9760 15.08850814 48859,6917.847,95.437,540.565,538.86,0.0
52874.0,STARLINK-4210,PAYLOAD,2023-04-30 21:20:43,15.08830399,0.0001161,53.2203,19.9262,100.4995,259.6128,-1.8793e-05,-5.87e-06,0.0,0 STARLINK-4210,1 52874U 22062AW  23120.88938706 -.00000587  00000-0 -18793-4 0  9999,2 52874  53.2203  19.9262 0001161 100.4995 259.6128 15.08830399 48976,6917.91,95.438,540.578,538.972,0.0
52874.0,STARLINK-4210,PAYLOAD,2023-04-30 22:56:06,15.08830338,0.0001152,53.2203,19.6288,99.7026,260.4096,-1.9262e-05,-5.94e-06,0.0,0 STARLINK-4210,1 52874U 22062AW  23120.95562751 -.00000594  00000-0 -19262-4 0  9990,2 52874  53.2203  19.6288 0001152  99.7026 260.4096 15.08830338 48490,6917.91,95.438,540.572,538.978,0.0
52874.0,STARLINK-4210,PAYLOAD,2023-05-01 21:11:29,15.08839475,0.0001152,53.2208,15.4635,87.3249,272.7875,7.5945e-05,9.21e-06,0.0,0 STARLINK-4210,1 52874U 22062AW  23121.88298230  .00000921  00000-0  75945-4 0  9993,2 52874  53.2208  15.4635 0001152  87.3249 272.7875 15.08839475 48633,6917.882,95.438,540.544,538.95,0.0
52874.0,STARLINK-4210,PAYLOAD,2023-05-01 22:46:52,15.08840885,0.0001157,53.2201,15.1657,86.178,273.9344,8.7717e-05,1.108e-05,0.0,0 STARLINK-4210,1 52874U 22062AW  23121.94922106  .00001108  00000-0  87717-4 0  9994,2 52874  53.2201  15.1657 0001157  86.1780 273.9344 15.08840885 49136,6917.878,95.437,540.543,538.942,0.0
52874.0,STARLINK-4210,PAYLOAD,2023-05-02 01:57:38,15.08843912,0.0001085,53.2188,14.5696,74.4593,285.6519,0.00011357,1.52e-05,0.0,0 STARLINK-4210,1 52874U 22062AW  23122.08169834  .00001520  00000-0  11357-3 0  9995,2 52874  53.2188  14.5696 0001085  74.4593 285.6519 15.08843912 48663,6917.868,95.437,540.484,538.983,0.0
52874.0,STARLINK-4210,PAYLOAD,2023-05-02 21:02:16,15.08840087,0.0001041,53.2187,11.0018,83.0261,277.0849,7.2379e-05,8.64e-06,0.0,0 STARLINK-4210,1 52874U 22062AW  23122.87658239  .00000864  00000-0  72379-4 0  9996,2 52874  53.2187  11.0018 0001041  83.0261 277.0849 15.08840087 48786,6917.88,95.438,540.465,539.025,0.0
